1 29155U 06018A   10049.40000000 -.00000090  00000-0  00000+0 0  9792
2 29155 000.4410 265.5110 0003403 129.4740 152.1090 01.00330904 13721